#dP2024  5 17  0  0  0.00000000      96 __u+U IGS20 FIT  IAC
## 2314 432000.00000000   900.00000000 60447 0.0000000000000
+  131   C01C02C03C04C05C06C07C08C09C10C11C12C13C14C16C19C20
+        C21C22C23C24C25C26C27C28C29C30C32C33C34C35C36C37C38
+        C39C40C41C42C43C44C45C46C59C60E02E03E04E05E07E08E09
+        E10E11E12E13E14E15E18E19E21E24E25E26E27E30E31E33E34
+        E36G01G02G03G04G05G06G07G08G09G10G11G12G13G14G15G16
+        G17G18G19G20G21G22G23G24G25G26G27G28G29G30G31G32J02
+        J03J04J07R01R02R03R04R05R06R07R08R09R10R11R12R13R14
+        R15R16R17R18R19R20R21R22R23R24R25R26  0  0  0  0  0
++        17 17 17 17 17  9  9 10  9  9  9  9  9  8  9  7  7
++         7  7  7  7  7  7  7  7  7  7  8  7  7  8  8  7  8
++         8  8  8  7  7  7  7  8 18 17  4  5  4  4  4  4  4
++         4  4  4  4  4  4  5  4  4  5  4  4  4  4  4  4  5
++         5  7  4  4  4  4  4  4  4  4  4  4  4  4  4  4  4
++         4  4  4  4  4  4  4  4  4  4  4  4  4  4  4  4 11
++        10 10 17  8  6  6  6  6 15  6  6  6 15  6  6  8  6
++         6  6  6  6  7  8  6  6 15  6  8  9  0  0  0  0  0
%c M  cc GPS ccc cccc cccc cccc cccc ccccc ccccc ccccc ccccc
%c cc cc ccc ccc cccc cccc cccc cccc ccccc ccccc ccccc ccccc
%f  0.0000000  0.000000000  0.00000000000  0.000000000000000
%f  0.0000000  0.000000000  0.00000000000  0.000000000000000
%i    0    0    0    0      0      0      0      0         0
%i    0    0    0    0      0      0      0      0         0
/* INFORMATION & ANALYSIS CENTER (IAC)            RAPID DATA
/* S/V CLOCKS ARE ALIGNED TO GNSS TIME                      
/* G:C1WC2W R:C1PC2P E:C1XC5X C:C2IC6I J:C1CC2S             
/* PCV:IGS20_2290 OL/AL:FES2004  NONE     YN ORB:CoN CLK:CoN
*  2024 05 17  9 45  0.00000000
PC01 -34300.494862  24477.981218   1365.702585    897.101073
PC02   4334.399952  41920.983799    778.117047    695.698062
PC03 -14828.012482  39458.071946   1198.033385    288.106520
PC04 -39620.009405  14366.072310   1183.479419   -517.252481
PC05  21869.924254  36055.536460    260.100977   -771.291214
PC06 -18106.775471  30608.378630 -22771.877630    428.011741
PC07  -5776.863564  38928.293719 -14745.673474   -722.210735
PC08  -3581.653608  20509.814396  36672.047779   -122.604415
PC09 -12090.770415  29334.295836 -27597.259300   -912.959803
PC10   1282.752728  41097.887380  -7529.670998     13.843490
PC11  20125.784226  -5292.385672  18658.684229    566.694852
PC12   9081.152435  13215.514892  22869.780451   -246.697171
PC13   3643.419374  24178.548466  34562.275231    435.808814
PC14  17686.061937   5035.224720 -20956.237227    903.913239
PC16 -22048.025445  30071.066662 -19714.482883   -526.977862
PC19 -14647.593682   5416.578201  23152.448243   -912.869412
PC20 -18020.955863 -13300.405928  16684.362039   -473.354820
PC21  10689.919725  25749.021370    615.840829   -967.710894
PC22  -2669.075523  22182.846773  16694.499414     -2.098898
PC23  11576.256622 -14071.007212  21144.279720   -779.679948
PC24  25298.221470   8674.365516  -8018.169020    921.700128
PC25  25887.557635  -4513.592493   9411.216478    401.945212
PC26  10363.067521  15794.242879 -20566.183545   -292.486035
PC27  -2013.745482 -19980.278075 -19397.752067    314.032234
PC28  11980.784376 -24196.797793  -7054.575106    240.773922
PC29 -20510.722257  14270.811488 -12436.903186    282.534096
PC30 -15762.811554  -5063.936378 -22479.378087    -79.295451
PC32 -10882.990709 -25702.650299   -666.084774   -625.047429
PC33  14641.328950  -5476.978750 -23111.616300   -964.510337
PC34  16647.525986   3447.331320  22108.610217    435.517322
PC35 -11297.636308  24633.843405   6715.937898    361.073278
PC36 -25994.138049   3877.484606  -9347.601797     83.940113
PC37  -9741.229767 -16051.735464  20650.260908   -962.861877
PC38 -11651.451403  19498.633783  35566.018584    155.624683
PC39 -23970.467018  31071.273204 -15655.386144     -8.377118
PC40 -10422.840722  36483.097633 -18089.237638    -70.567063
PC41   3184.727104 -21711.832838 -17199.501098   -949.964738
PC42  17879.044334  14813.203490 -15407.749857   -443.126770
PC43  20632.145272 -13409.623393  13127.677719     71.970814
PC44   2694.653186  20087.756245  19175.237616    475.797068
PC45 -11735.842632  13868.813985 -21175.708561    -86.556472
PC46 -25585.318171  -8284.611850   7377.423323   -148.915879
PC59 -32310.530021  27052.379177   1200.276620      0.722852
PC60   7296.146220  41495.551598   1608.343380     -0.837349
PE02  -3466.678524  18117.768218 -23157.276785    128.063816
PE03  -8481.345591  27953.076339   4724.743457   -114.283469
PE04  -5132.885340 -25663.960443  13849.152664   -399.017453
PE05 -16807.505153  13782.227015  20098.364581   4748.472726
PE07  15234.208543   8925.275549 -23744.283845   -120.594872
PE08   4486.414431  26096.541689 -13205.575725   -272.054428
PE09 -15063.434625  -9048.689276  23830.278023   -445.931405
PE10 -16938.345226  -9277.893433 -22442.810933   -625.456660
PE11 -24840.039192  -2207.850106 -15975.395319   2847.373401
PE12  -7437.780036 -14371.555677 -24795.180681  -1041.989030
PE13  24466.418387   2562.059501  16451.402598    -21.638383
PE14 -18038.455200   8829.386790 -18740.991198     39.138596
PE15   6771.394179  14544.708491  24874.619152   -103.377606
PE18  13266.470614 -25738.602186   8682.121787    120.447110
PE19   9776.719141 -27140.439646  -6632.605973    -48.593166
PE21  19529.476435  -3244.904881  22002.416778   -594.958446
PE24 -24722.701499 -14356.080967  -7655.554743   -767.101806
PE25 -19784.858777   2864.497077 -21825.843499      4.609414
PE26  27384.738692 -11050.260833  -2004.013876    456.829240
PE27  24794.705101  14109.377447   7904.769221   -351.525786
PE30  15190.120729  23014.922939 -10781.355522   -308.879903
PE31 -15370.997098 -22931.542608  10685.299527    -23.737323
PE33  15104.786574 -17754.053943 -18246.018536     11.769946
PE34 -14582.454030  17835.842617  18574.401080   -111.721146
PE36 -27569.148679  10701.582136   1422.850064   -228.273839
PG01  21493.352723   3978.081202  14942.292180    272.661733
PG02   5262.403484 -17190.574733 -18973.984099   -434.694897
PG03  -7856.606754 -19889.302855 -15987.866081    367.633277
PG04    701.153513 -25847.195031   5778.904974    362.943039
PG05  -6876.615812  13338.888203  21730.330764   -173.011712
PG06 -25218.692330   4481.443069  -7181.912246    268.722879
PG07 -15162.172325  -9583.569699  20242.044321   -130.681797
PG08   6240.030170 -25124.398284   4702.672020    182.698460
PG09  -8931.528474 -19164.676517  15962.807042    199.514497
PG10  22671.176408   8910.638382 -10759.596246    -24.627115
PG11 -22911.173625  12052.204488   5840.117364   -664.194344
PG12   4605.558076  20185.458602 -16949.343467   -506.089977
PG13 -13524.607819  19979.493004  10629.840219    651.135194
PG14 -22651.357192 -11902.792927  -7480.786910    402.815686
PG15  -2954.958939  25873.035636   4159.660788    159.950708
PG16  11604.279462  -9667.586583  21531.848073   -289.419814
PG17 -13756.458051  -6141.922682 -21444.993302    705.571164
PG18  15517.098764   8588.275816  19844.613177   -611.866267
PG19 -15901.620275   3569.548164 -21074.760409    483.249716
PG20 -16383.930981   7030.643232  19703.637531    376.274499
PG21  10088.746018 -17641.763241 -16084.358740    121.118076
PG22 -21025.009584  -6193.482890 -14372.352433    -14.784831
PG23  21100.224623  16301.277190    566.357969    227.527273
PG24  -6380.913400  18428.778545 -18268.421062   -470.366374
PG25  14115.249151  20249.286789 -10483.384902    495.862191
PG26  21126.456631   -271.572190  16157.201519    151.600623
PG27  12592.366539 -18048.982810  14267.064729    -24.376522
PG28  24546.261141  -3311.489774  -9598.040459   -247.676766
PG29   5203.068239  21587.250777  14430.933996   -598.109424
PG30 -23063.588335  -1605.873955  13454.481502   -389.080631
PG31  24936.834407  -9716.230109    684.565314   -227.800611
PG32  14814.858117   3030.148016 -21626.828050   -618.154298
PJ02 -21956.210113  19842.044785 -25338.071055     -0.162296
PJ03 -29689.660350  29617.654721  10098.623843      0.229201
PJ04 -26311.142492  26987.183395  24721.884849     50.324706
PJ07 -25378.746341  33673.059746     17.244729      0.070126
PR01  -8444.176600 -23657.458140   4501.764279     85.620734
PR02 -11814.587435 -12160.832133  19081.990604    -22.972402
PR03  -9429.565894   6660.927502  22802.134698    100.307580
PR04  -1956.182932  21193.210403  14100.736663    236.784849
PR05   6450.858790  24590.487788  -2193.166763    131.624278
PR06  12453.498272  10508.355342 -19636.193074   -163.623813
PR07   9143.630226  -7428.641106 -22573.883815     82.577423
PR08   1658.314991 -21371.795819 -13739.864652    -75.452376
PR09  24059.771423   7858.281857  -2767.161232    187.040560
PR10  22581.840032    486.031435  11922.002450   -164.204202
PR11   8240.505322  -8734.740749  22513.581742     24.431804
PR12 -12323.573769 -12809.815878  18316.203539     40.226948
PR13 -23163.678515  -9244.600199   5339.563488    -47.448613
PR14 -21446.921506    795.658702 -13790.307836     26.496329
PR15  -6708.567528   9405.151819 -22721.809624     79.729151
PR16  12184.667465  12626.514221 -18486.267777     25.655990
PR17 -20051.020660  13428.476114  -8203.903324     87.538947
PR18 -15160.439183  18778.204071   8345.496184    142.469860
PR19  -4364.787947  15360.040410  19884.223767   -276.933101
PR20  13574.786864   1121.189775  21558.239949   -112.950145
PR21  20166.463886 -13221.063629   8348.348555   -101.532484
PR22  14830.057265 -18521.891485  -9324.753520    111.374715
PR23   1035.672520 -13820.712683 -21426.388545   -121.089917
PR24 -14284.563993   -368.313410 -21116.178757    -56.154320
PR25  20667.169788 -12716.037316   7896.274029    -36.448097
PR26   2184.712557 -20674.174601 -14775.901095    -19.220161
EOF
